     3.01           N: GNSS NAV DATA    E: GALILEO          RINEX VERSION / TYPE
CRU                 ComNav Technology   20191128 094331 LCL PGM / RUN BY / DATE 
    18                                                      LEAP SECONDS
                                                            END OF HEADER
E24 2019 11 27 10 40  0 5.745721922722D-03-1.975308805413D-11 0.000000000000D+00
     1.120000000000D+02 2.230000000000D+02 2.572964317149D-09 3.703950800990D-01
     1.047179102898D-05 4.230145132169D-04 5.695968866348D-06 5.440620407104D+03
     2.976000000000D+05-3.725290298462D-08-2.355039569034D+00 7.823109626770D-08
     9.830599637077D-01 2.290625000000D+02 2.561929697970D-01-5.439869449541D-09
     3.307280618656D-10 5.170000000000D+02 2.081000000000D+03 0.000000000000D+00
     3.120000000000D+00 0.000000000000D+00 4.540197551250D-08 5.098991096020D-08
     9.999000000000D+08 0.000000000000D+00 0.000000000000D+00 0.000000000000D+00
E31 2019 11 27 10 40  0-4.706762847491D-04-1.563194018672D-13 0.000000000000D+00
     1.120000000000D+02 2.173125000000D+02 2.542248752008D-09 2.941679656422D+00
     1.013092696667D-05 3.704768605530D-04 6.360933184624D-06 5.440635692596D+03
     2.976000000000D+05-1.862645149231D-09-2.360676221652D+00-2.235174179077D-08
     9.850547914860D-01 2.162187500000D+02-1.527797381339D+00-5.457013020782D-09
     2.867976605595D-10 5.170000000000D+02 2.081000000000D+03 0.000000000000D+00
     3.120000000000D+00 0.000000000000D+00 2.561137080193D-09 2.793967723846D-09
     9.999000000000D+08 0.000000000000D+00 0.000000000000D+00 0.000000000000D+00
E08 2019 11 27 10 40  0 6.257302360609D-03-5.343281372916D-12 0.000000000000D+00
     1.120000000000D+02-9.687500000000D+00 3.837659853937D-09-2.400800653041D-01
    -4.097819328308D-07 2.950147027150D-04 3.619119524956D-06 5.440602626801D+03
     2.976000000000D+05 1.862645149231D-08 1.823451416471D+00-1.117587089539D-08
     9.586430417306D-01 2.578750000000D+02 5.976826743510D-01-5.805241811623D-09
    -2.050085394286D-10 5.170000000000D+02 2.081000000000D+03 0.000000000000D+00
     3.120000000000D+00 0.000000000000D+00-5.820766091347D-09-6.752088665962D-09
     9.999000000000D+08 0.000000000000D+00 0.000000000000D+00 0.000000000000D+00
E25 2019 11 27 10 10  0-4.969034926035D-04-9.947598300641D-13 0.000000000000D+00
     1.090000000000D+02 2.489062500000D+02 2.486889303207D-09 1.037790144331D+00
     1.161545515060D-05 3.299420932308D-04 6.088986992836D-06 5.440636344910D+03
     2.958000000000D+05 6.519258022308D-08-2.360637290476D+00-2.793967723846D-08
     9.850836431563D-01 2.206562500000D+02-1.417297602168D+00-5.504872157164D-09
     4.035882396416D-10 5.170000000000D+02 2.081000000000D+03 0.000000000000D+00
     3.120000000000D+00 0.000000000000D+00 1.396983861923D-09 1.396983861923D-09
     9.999000000000D+08 0.000000000000D+00 0.000000000000D+00 0.000000000000D+00
E08 2019 11 27 10 50  0 6.257299042773D-03-5.343281372916D-12 0.000000000000D+00
     1.130000000000D+02-9.500000000000D+00 3.841231431279D-09-1.657285193495D-01
    -3.855675458908D-07 2.950414782390D-04 3.628432750702D-06 5.440602684021D+03
     2.982000000000D+05 2.048909664154D-08 1.823447927411D+00-1.117587089539D-08
     9.586429071421D-01 2.578125000000D+02 5.977173703791D-01-5.806313284826D-09
    -2.035799084918D-10 5.170000000000D+02 2.081000000000D+03 0.000000000000D+00
     3.120000000000D+00 0.000000000000D+00-5.820766091347D-09-6.752088665962D-09
     9.999000000000D+08 0.000000000000D+00 0.000000000000D+00 0.000000000000D+00
E24 2019 11 27 10 50  0 5.745710164774D-03-1.975308805413D-11 0.000000000000D+00
     1.130000000000D+02 2.226562500000D+02 2.575107263554D-09 4.449445427776D-01
     1.046434044838D-05 4.229744663462D-04 5.679205060005D-06 5.440620248795D+03
     2.982000000000D+05-5.029141902924D-08-2.355042787454D+00 6.891787052155D-08
     9.830602211813D-01 2.296250000000D+02 2.560281545203D-01-5.435940714464D-09
     3.203704875739D-10 5.170000000000D+02 2.081000000000D+03 0.000000000000D+00
     3.120000000000D+00 0.000000000000D+00 4.540197551250D-08 5.098991096020D-08
     9.999000000000D+08 0.000000000000D+00 0.000000000000D+00 0.000000000000D+00
E08 2019 11 27 11  0  0 6.257295724936D-03-5.357492227631D-12 0.000000000000D+00
     1.140000000000D+02-9.312500000000D+00 3.844088693152D-09-9.138663889461D-02
    -3.650784492493D-07 2.950688358396D-04 3.641471266747D-06 5.440602743149D+03
     2.988000000000D+05 2.421438694000D-08 1.823444436889D+00-1.117587089539D-08
     9.586427725537D-01 2.576875000000D+02 5.977617348328D-01-5.807384758028D-09
    -2.017941198208D-10 5.170000000000D+02 2.081000000000D+03 0.000000000000D+00
     3.120000000000D+00 0.000000000000D+00-5.820766091347D-09-6.752088665962D-09
     9.999000000000D+08 0.000000000000D+00 0.000000000000D+00 0.000000000000D+00
E24 2019 11 27 11  0  0 5.745698348619D-03-1.973887719942D-11 0.000000000000D+00
     1.140000000000D+02 2.226875000000D+02 2.576178736756D-09 5.193399689600D-01
     1.047365367413D-05 4.229760961607D-04 5.686655640602D-06 5.440620244980D+03
     2.988000000000D+05-6.146728992462D-08-2.355046000022D+00 5.401670932770D-08
     9.830604669515D-01 2.296875000000D+02 2.560174342566D-01-5.432726294857D-09
     3.103700710164D-10 5.170000000000D+02 2.081000000000D+03 0.000000000000D+00
     3.120000000000D+00 0.000000000000D+00 4.540197551250D-08 5.098991096020D-08
     9.999000000000D+08 0.000000000000D+00 0.000000000000D+00 0.000000000000D+00
E08 2019 11 27 11 10  0 6.257292407099D-03-5.371703082346D-12 0.000000000000D+00
     1.150000000000D+02-9.125000000000D+00 3.846945955026D-09-1.705463459970D-02
    -3.464519977570D-07 2.950958441943D-04 3.658235073090D-06 5.440602806091D+03
     2.994000000000D+05 2.793967723846D-08 1.823440943440D+00-9.313225746155D-09
     9.586426394281D-01 2.575312500000D+02 5.978159769093D-01-5.808813388965D-09
    -1.996511734156D-10 5.170000000000D+02 2.081000000000D+03 0.000000000000D+00
     3.120000000000D+00 0.000000000000D+00-5.820766091347D-09-6.752088665962D-09
     9.999000000000D+08 0.000000000000D+00 0.000000000000D+00 0.000000000000D+00
E24 2019 11 27 11 10  0 5.745686532464D-03-1.973887719942D-11 0.000000000000D+00
     1.150000000000D+02 2.229375000000D+02 2.576178736756D-09 5.935703165405D-01
     1.049041748047D-05 4.230086924508D-04 5.723908543587D-06 5.440620391846D+03
     2.994000000000D+05-6.891787052155D-08-2.355049209664D+00 4.097819328308D-08
     9.830607024813D-01 2.291562500000D+02 2.561718496486D-01-5.430940506186D-09
     3.003696544589D-10 5.170000000000D+02 2.081000000000D+03 0.000000000000D+00
     3.120000000000D+00 0.000000000000D+00 4.540197551250D-08 5.098991096020D-08
     9.999000000000D+08 0.000000000000D+00 0.000000000000D+00 0.000000000000D+00
E03 2019 11 27 11 10  0-2.375821932219D-04-4.192202140985D-12 0.000000000000D+00
     1.150000000000D+02-1.078125000000D+01 3.901948246092D-09 6.614419487864D-01
    -4.842877388000D-07 3.466478083283D-04 3.820285201073D-06 5.440603755951D+03
     2.994000000000D+05-1.862645149231D-09 1.830657023859D+00 3.725290298462D-08
     9.526645987844D-01 2.536562500000D+02 7.045549082257D-01-5.837386007701D-09
    -2.125088518467D-10 5.170000000000D+02 2.081000000000D+03 0.000000000000D+00
     3.120000000000D+00 0.000000000000D+00 9.313225746155D-10 9.313225746155D-10
     9.999000000000D+08 0.000000000000D+00 0.000000000000D+00 0.000000000000D+00
E26 2019 11 27 10  0  0 3.829511522781D-03-4.412470389070D-11 0.000000000000D+00
     1.080000000000D+02-2.111875000000D+02 2.575821579022D-09 3.038063929226D+00
    -9.933486580849D-06 3.314905334264D-04 9.415671229363D-06 5.440616744995D+03
     2.952000000000D+05 1.490116119385D-08-2.711979435229D-01-1.117587089539D-08
     9.827857528800D-01 1.514375000000D+02-2.443102207893D+00-5.310578349762D-09
    -8.571785620706D-11 5.170000000000D+02 2.081000000000D+03 0.000000000000D+00
    -1.000000000000D+00 0.000000000000D+00 3.958120942116D-09 4.423782229424D-09
     9.999000000000D+08 0.000000000000D+00 0.000000000000D+00 0.000000000000D+00
E05 2019 11 27 11 10  0-4.277105908841D-04 3.211653165636D-12 0.000000000000D+00
     1.150000000000D+02-1.503125000000D+01 3.845874481823D-09 8.560563751670D-01
    -8.046627044678D-07 1.837594900280D-04 3.945082426071D-06 5.440603111267D+03
     2.994000000000D+05-1.490116119385D-08 1.830644632943D+00 5.587935447693D-09
     9.526783180302D-01 2.521250000000D+02 1.298816117087D+00-5.807027600294D-09
    -2.671539851787D-10 5.170000000000D+02 2.081000000000D+03 0.000000000000D+00
     3.120000000000D+00 0.000000000000D+00 1.396983861923D-09 1.629814505577D-09
     9.999000000000D+08 0.000000000000D+00 0.000000000000D+00 0.000000000000D+00
E13 2019 11 27 11 10  0 3.958045854233D-04 5.400124791777D-13 0.000000000000D+00
     1.150000000000D+02-2.376875000000D+02 2.445101848306D-09-2.426957975010D+00
    -1.096166670322D-05 2.722303615883D-04 9.033828973770D-06 5.440609321594D+03
     2.994000000000D+05 4.097819328308D-08-2.786287159473D-01-5.587935447693D-09
     9.896262685806D-01 1.597500000000D+02-1.945497534056D+00-5.281291415558D-09
    -1.392915163365D-10 5.170000000000D+02 2.081000000000D+03 0.000000000000D+00
     3.120000000000D+00 0.000000000000D+00-1.862645149231D-09-2.561137080193D-09
     9.999000000000D+08 0.000000000000D+00 0.000000000000D+00 0.000000000000D+00
